CCSDS_OMM_VERS = 2.0
CREATION_DATE  = 
ORIGINATOR     = 

OBJECT_NAME    = STARLINK-36704
OBJECT_ID      = 2026-025E
CENTER_NAME    = EARTH
REF_FRAME      = TEME
TIME_SYSTEM    = UTC
MEAN_ELEMENT_THEORY = SGP/SGP4

EPOCH          = 2026-03-04T06:13:19.063488
MEAN_MOTION    = 15.75273235
ECCENTRICITY   = .0001732
INCLINATION    = 97.2844
RA_OF_ASC_NODE = 174.5453
ARG_OF_PERICENTER = 93.2377
MEAN_ANOMALY   = 266.9087

EPHEMERIS_TYPE = 0
CLASSIFICATION_TYPE = U
NORAD_CAT_ID   = 67697
ELEMENT_SET_NO = 999
REV_AT_EPOCH   = 508
BSTAR          = .12458E-2
MEAN_MOTION_DOT = .190581E-2
MEAN_MOTION_DDOT = 0

CCSDS_OMM_VERS = 2.0
CREATION_DATE  = 
ORIGINATOR     = 

OBJECT_NAME    = STARLINK-36697
OBJECT_ID      = 2026-025F
CENTER_NAME    = EARTH
REF_FRAME      = TEME
TIME_SYSTEM    = UTC
MEAN_ELEMENT_THEORY = SGP/SGP4

EPOCH          = 2026-03-04T07:01:20.867232
MEAN_MOTION    = 15.80940136
ECCENTRICITY   = .0001707
INCLINATION    = 97.2846
RA_OF_ASC_NODE = 174.6551
ARG_OF_PERICENTER = 35.7420
MEAN_ANOMALY   = 324.3963

EPHEMERIS_TYPE = 0
CLASSIFICATION_TYPE = U
NORAD_CAT_ID   = 67698
ELEMENT_SET_NO = 999
REV_AT_EPOCH   = 509
BSTAR          = .13654E-2
MEAN_MOTION_DOT = .271217E-2
MEAN_MOTION_DDOT = 0

CCSDS_OMM_VERS = 2.0
CREATION_DATE  = 
ORIGINATOR     = 

OBJECT_NAME    = STARLINK-36716
OBJECT_ID      = 2026-025G
CENTER_NAME    = EARTH
REF_FRAME      = TEME
TIME_SYSTEM    = UTC
MEAN_ELEMENT_THEORY = SGP/SGP4

EPOCH          = 2026-03-04T10:00:01.999584
MEAN_MOTION    = 15.75202035
ECCENTRICITY   = .0000722
INCLINATION    = 97.2850
RA_OF_ASC_NODE = 174.7831
ARG_OF_PERICENTER = 72.1189
MEAN_ANOMALY   = 268.1233

EPHEMERIS_TYPE = 0
CLASSIFICATION_TYPE = U
NORAD_CAT_ID   = 67699
ELEMENT_SET_NO = 999
REV_AT_EPOCH   = 516
BSTAR          = -.29109E-3
MEAN_MOTION_DOT = -.43348E-3
MEAN_MOTION_DDOT = 0

CCSDS_OMM_VERS = 2.0
CREATION_DATE  = 
ORIGINATOR     = 

OBJECT_NAME    = STARLINK-36712
OBJECT_ID      = 2026-025H
CENTER_NAME    = EARTH
REF_FRAME      = TEME
TIME_SYSTEM    = UTC
MEAN_ELEMENT_THEORY = SGP/SGP4

EPOCH          = 2026-03-04T05:59:05.279424
MEAN_MOTION    = 15.75410807
ECCENTRICITY   = .0001035
INCLINATION    = 97.2843
RA_OF_ASC_NODE = 174.5588
ARG_OF_PERICENTER = 136.8233
MEAN_ANOMALY   = 223.3114

EPHEMERIS_TYPE = 0
CLASSIFICATION_TYPE = U
NORAD_CAT_ID   = 67700
ELEMENT_SET_NO = 999
REV_AT_EPOCH   = 508
BSTAR          = .353E-2
MEAN_MOTION_DOT = .568434E-2
MEAN_MOTION_DDOT = 0

CCSDS_OMM_VERS = 2.0
CREATION_DATE  = 
ORIGINATOR     = 

OBJECT_NAME    = STARLINK-36713
OBJECT_ID      = 2026-025J
CENTER_NAME    = EARTH
REF_FRAME      = TEME
TIME_SYSTEM    = UTC
MEAN_ELEMENT_THEORY = SGP/SGP4

EPOCH          = 2026-03-04T12:07:34.711968
MEAN_MOTION    = 15.75193579
ECCENTRICITY   = .0001878
INCLINATION    = 97.2857
RA_OF_ASC_NODE = 174.8229
ARG_OF_PERICENTER = 52.8265
MEAN_ANOMALY   = 307.3171

EPHEMERIS_TYPE = 0
CLASSIFICATION_TYPE = U
NORAD_CAT_ID   = 67701
ELEMENT_SET_NO = 999
REV_AT_EPOCH   = 513
BSTAR          = .33955E-2
MEAN_MOTION_DOT = .53978E-2
MEAN_MOTION_DDOT = 0

CCSDS_OMM_VERS = 2.0
CREATION_DATE  = 
ORIGINATOR     = 

OBJECT_NAME    = STARLINK-36695
OBJECT_ID      = 2026-025K
CENTER_NAME    = EARTH
REF_FRAME      = TEME
TIME_SYSTEM    = UTC
MEAN_ELEMENT_THEORY = SGP/SGP4

EPOCH          = 2026-03-04T06:04:40.995264
MEAN_MOTION    = 15.75452079
ECCENTRICITY   = .0001352
INCLINATION    = 97.2852
RA_OF_ASC_NODE = 174.5516
ARG_OF_PERICENTER = 137.5364
MEAN_ANOMALY   = 222.6006

EPHEMERIS_TYPE = 0
CLASSIFICATION_TYPE = U
NORAD_CAT_ID   = 67702
ELEMENT_SET_NO = 999
REV_AT_EPOCH   = 508
BSTAR          = .39989E-2
MEAN_MOTION_DOT = .651514E-2
MEAN_MOTION_DDOT = 0

CCSDS_OMM_VERS = 2.0
CREATION_DATE  = 
ORIGINATOR     = 

OBJECT_NAME    = STARLINK-36630
OBJECT_ID      = 2026-025L
CENTER_NAME    = EARTH
REF_FRAME      = TEME
TIME_SYSTEM    = UTC
MEAN_ELEMENT_THEORY = SGP/SGP4

EPOCH          = 2026-03-04T06:49:54.557472
MEAN_MOTION    = 15.80886698
ECCENTRICITY   = .0002066
INCLINATION    = 97.2851
RA_OF_ASC_NODE = 174.6635
ARG_OF_PERICENTER = 101.8148
MEAN_ANOMALY   = 258.3352

EPHEMERIS_TYPE = 0
CLASSIFICATION_TYPE = U
NORAD_CAT_ID   = 67703
ELEMENT_SET_NO = 999
REV_AT_EPOCH   = 509
BSTAR          = .8851E-3
MEAN_MOTION_DOT = .173374E-2
MEAN_MOTION_DDOT = 0

CCSDS_OMM_VERS = 2.0
CREATION_DATE  = 
ORIGINATOR     = 

OBJECT_NAME    = STARLINK-36338
OBJECT_ID      = 2026-025M
CENTER_NAME    = EARTH
REF_FRAME      = TEME
TIME_SYSTEM    = UTC
MEAN_ELEMENT_THEORY = SGP/SGP4

EPOCH          = 2026-03-04T10:00:01.999584
MEAN_MOTION    = 15.75174685
ECCENTRICITY   = .0001405
INCLINATION    = 97.2850
RA_OF_ASC_NODE = 174.7757
ARG_OF_PERICENTER = 124.7866
MEAN_ANOMALY   = 203.5089

EPHEMERIS_TYPE = 0
CLASSIFICATION_TYPE = U
NORAD_CAT_ID   = 67704
ELEMENT_SET_NO = 999
REV_AT_EPOCH   = 506
BSTAR          = -.56914E-3
MEAN_MOTION_DOT = -.84135E-3
MEAN_MOTION_DDOT = 0

CCSDS_OMM_VERS = 2.0
CREATION_DATE  = 
ORIGINATOR     = 

OBJECT_NAME    = STARLINK-36316
OBJECT_ID      = 2026-025N
CENTER_NAME    = EARTH
REF_FRAME      = TEME
TIME_SYSTEM    = UTC
MEAN_ELEMENT_THEORY = SGP/SGP4

EPOCH          = 2026-03-04T07:19:23.280384
MEAN_MOTION    = 15.75210312
ECCENTRICITY   = .0001598
INCLINATION    = 97.2857
RA_OF_ASC_NODE = 174.6360
ARG_OF_PERICENTER = 22.7500
MEAN_ANOMALY   = 337.3836

EPHEMERIS_TYPE = 0
CLASSIFICATION_TYPE = U
NORAD_CAT_ID   = 67705
ELEMENT_SET_NO = 999
REV_AT_EPOCH   = 509
BSTAR          = .1762E-2
MEAN_MOTION_DOT = .271453E-2
MEAN_MOTION_DDOT = 0

CCSDS_OMM_VERS = 2.0
CREATION_DATE  = 
ORIGINATOR     = 

OBJECT_NAME    = STARLINK-36707
OBJECT_ID      = 2026-025P
CENTER_NAME    = EARTH
REF_FRAME      = TEME
TIME_SYSTEM    = UTC
MEAN_ELEMENT_THEORY = SGP/SGP4

EPOCH          = 2026-03-04T10:00:01.999584
MEAN_MOTION    = 15.75154654
ECCENTRICITY   = .0001382
INCLINATION    = 97.2850
RA_OF_ASC_NODE = 174.7999
ARG_OF_PERICENTER = 72.2416
MEAN_ANOMALY   = 312.0464

EPHEMERIS_TYPE = 0
CLASSIFICATION_TYPE = U
NORAD_CAT_ID   = 67706
ELEMENT_SET_NO = 999
REV_AT_EPOCH   = 485
BSTAR          = -.34284E-4
MEAN_MOTION_DOT = -.5232E-4
MEAN_MOTION_DDOT = 0

CCSDS_OMM_VERS = 2.0
CREATION_DATE  = 
ORIGINATOR     = 

OBJECT_NAME    = STARLINK-36645
OBJECT_ID      = 2026-025Q
CENTER_NAME    = EARTH
REF_FRAME      = TEME
TIME_SYSTEM    = UTC
MEAN_ELEMENT_THEORY = SGP/SGP4

EPOCH          = 2026-03-04T05:53:29.796000
MEAN_MOTION    = 15.75476665
ECCENTRICITY   = .000126
INCLINATION    = 97.2854
RA_OF_ASC_NODE = 174.5635
ARG_OF_PERICENTER = 100.0946
MEAN_ANOMALY   = 260.0462

EPHEMERIS_TYPE = 0
CLASSIFICATION_TYPE = U
NORAD_CAT_ID   = 67707
ELEMENT_SET_NO = 999
REV_AT_EPOCH   = 508
BSTAR          = .41089E-2
MEAN_MOTION_DOT = .671799E-2
MEAN_MOTION_DDOT = 0

CCSDS_OMM_VERS = 2.0
CREATION_DATE  = 
ORIGINATOR     = 

OBJECT_NAME    = STARLINK-36287
OBJECT_ID      = 2026-025R
CENTER_NAME    = EARTH
REF_FRAME      = TEME
TIME_SYSTEM    = UTC
MEAN_ELEMENT_THEORY = SGP/SGP4

EPOCH          = 2026-03-04T06:36:15.852672
MEAN_MOTION    = 15.80797047
ECCENTRICITY   = .0001964
INCLINATION    = 97.2852
RA_OF_ASC_NODE = 174.6753
ARG_OF_PERICENTER = 21.7675
MEAN_ANOMALY   = 338.3676

EPHEMERIS_TYPE = 0
CLASSIFICATION_TYPE = U
NORAD_CAT_ID   = 67708
ELEMENT_SET_NO = 999
REV_AT_EPOCH   = 510
BSTAR          = .20967E-3
MEAN_MOTION_DOT = .40172E-3
MEAN_MOTION_DDOT = 0

