STARLINK-36704          
1 67697U 26025E   26063.25924842  .00190581  00000+0  12458-2 0  9998
2 67697  97.2844 174.5453 0001732  93.2377 266.9087 15.75273235  5085
STARLINK-36697          
1 67698U 26025F   26063.29260263  .00271217  00000+0  13654-2 0  9998
2 67698  97.2846 174.6551 0001707  35.7420 324.3963 15.80940136  5090
STARLINK-36716          
1 67699U 26025G   26063.41668981 -.00043348  00000+0 -29109-3 0  9999
2 67699  97.2850 174.7831 0000722  72.1189 268.1233 15.75202035  5167
STARLINK-36712          
1 67700U 26025H   26063.24936666  .00568434  00000+0  35300-2 0  9996
2 67700  97.2843 174.5588 0001035 136.8233 223.3114 15.75410807  5085
STARLINK-36713          
1 67701U 26025J   26063.50526287  .00539780  00000+0  33955-2 0  9996
2 67701  97.2857 174.8229 0001878  52.8265 307.3171 15.75193579  5139
STARLINK-36695          
1 67702U 26025K   26063.25325226  .00651514  00000+0  39989-2 0  9992
2 67702  97.2852 174.5516 0001352 137.5364 222.6006 15.75452079  5082
STARLINK-36630          
1 67703U 26025L   26063.28465923  .00173374  00000+0  88510-3 0  9993
2 67703  97.2851 174.6635 0002066 101.8148 258.3352 15.80886698  5097
STARLINK-36338          
1 67704U 26025M   26063.41668981 -.00084135  00000+0 -56914-3 0  9999
2 67704  97.2850 174.7757 0001405 124.7866 203.5089 15.75174685  5066
STARLINK-36316          
1 67705U 26025N   26063.30513056  .00271453  00000+0  17620-2 0  9999
2 67705  97.2857 174.6360 0001598  22.7500 337.3836 15.75210312  5095
STARLINK-36707          
1 67706U 26025P   26063.41668981 -.00005232  00000+0 -34284-4 0  9999
2 67706  97.2850 174.7999 0001382  72.2416 312.0464 15.75154654  4851
STARLINK-36645          
1 67707U 26025Q   26063.24548375  .00671799  00000+0  41089-2 0  9999
2 67707  97.2854 174.5635 0001260 100.0946 260.0462 15.75476665  5089
STARLINK-36287          
1 67708U 26025R   26063.27518348  .00040172  00000+0  20967-3 0  9998
2 67708  97.2852 174.6753 0001964  21.7675 338.3676 15.80797047  5104
